CCSDS_OMM_VERS = 2.0
CREATION_DATE  = 
ORIGINATOR     = 

OBJECT_NAME    = ATLAS CENTAUR R/B
OBJECT_ID      = 1972-065B
CENTER_NAME    = EARTH
REF_FRAME      = TEME
TIME_SYSTEM    = UTC
MEAN_ELEMENT_THEORY = SGP/SGP4

EPOCH          = 2026-01-17T08:09:48.352608
MEAN_MOTION    = 14.77513393
ECCENTRICITY   = .00345399
INCLINATION    = 35.0007
RA_OF_ASC_NODE = 246.6443
ARG_OF_PERICENTER = 297.6504
MEAN_ANOMALY   = 62.0693

EPHEMERIS_TYPE = 0
CLASSIFICATION_TYPE = U
NORAD_CAT_ID   = 6155
ELEMENT_SET_NO = 999
REV_AT_EPOCH   = 83366
BSTAR          = .12258062E-3
MEAN_MOTION_DOT = .874E-5
MEAN_MOTION_DDOT = 0

CCSDS_OMM_VERS = 2.0
CREATION_DATE  = 
ORIGINATOR     = 

OBJECT_NAME    = SL-8 R/B
OBJECT_ID      = 1975-112B
CENTER_NAME    = EARTH
REF_FRAME      = TEME
TIME_SYSTEM    = UTC
MEAN_ELEMENT_THEORY = SGP/SGP4

EPOCH          = 2026-01-17T12:22:26.990688
MEAN_MOTION    = 14.38171427
ECCENTRICITY   = .00163351
INCLINATION    = 74.0612
RA_OF_ASC_NODE = 113.0540
ARG_OF_PERICENTER = 220.7273
MEAN_ANOMALY   = 139.2661

EPHEMERIS_TYPE = 0
CLASSIFICATION_TYPE = U
NORAD_CAT_ID   = 8459
ELEMENT_SET_NO = 999
REV_AT_EPOCH   = 62451
BSTAR          = .82409267E-4
MEAN_MOTION_DOT = .224E-5
MEAN_MOTION_DDOT = 0

CCSDS_OMM_VERS = 2.0
CREATION_DATE  = 
ORIGINATOR     = 

OBJECT_NAME    = SL-3 R/B
OBJECT_ID      = 1977-057B
CENTER_NAME    = EARTH
REF_FRAME      = TEME
TIME_SYSTEM    = UTC
MEAN_ELEMENT_THEORY = SGP/SGP4

EPOCH          = 2026-01-17T14:36:28.524672
MEAN_MOTION    = 15.43902892
ECCENTRICITY   = .00085917
INCLINATION    = 97.5698
RA_OF_ASC_NODE = 187.3643
ARG_OF_PERICENTER = 105.4426
MEAN_ANOMALY   = 254.7772

EPHEMERIS_TYPE = 0
CLASSIFICATION_TYPE = U
NORAD_CAT_ID   = 10114
ELEMENT_SET_NO = 999
REV_AT_EPOCH   = 66044
BSTAR          = .24781923E-3
MEAN_MOTION_DOT = .11182E-3
MEAN_MOTION_DDOT = 0

CCSDS_OMM_VERS = 2.0
CREATION_DATE  = 
ORIGINATOR     = 

OBJECT_NAME    = SEASAT 1
OBJECT_ID      = 1978-064A
CENTER_NAME    = EARTH
REF_FRAME      = TEME
TIME_SYSTEM    = UTC
MEAN_ELEMENT_THEORY = SGP/SGP4

EPOCH          = 2026-01-17T15:41:22.576128
MEAN_MOTION    = 14.46105093
ECCENTRICITY   = .00011885
INCLINATION    = 108.0161
RA_OF_ASC_NODE = 18.3919
ARG_OF_PERICENTER = 279.3324
MEAN_ANOMALY   = 80.7687

EPHEMERIS_TYPE = 0
CLASSIFICATION_TYPE = U
NORAD_CAT_ID   = 10967
ELEMENT_SET_NO = 999
REV_AT_EPOCH   = 49913
BSTAR          = .10003001E-3
MEAN_MOTION_DOT = .22E-5
MEAN_MOTION_DDOT = 0

CCSDS_OMM_VERS = 2.0
CREATION_DATE  = 
ORIGINATOR     = 

OBJECT_NAME    = SL-14 R/B
OBJECT_ID      = 1979-011B
CENTER_NAME    = EARTH
REF_FRAME      = TEME
TIME_SYSTEM    = UTC
MEAN_ELEMENT_THEORY = SGP/SGP4

EPOCH          = 2026-01-17T09:42:57.409632
MEAN_MOTION    = 14.91825629
ECCENTRICITY   = .00149968
INCLINATION    = 82.5259
RA_OF_ASC_NODE = 145.2203
ARG_OF_PERICENTER = 225.1010
MEAN_ANOMALY   = 134.8994

EPHEMERIS_TYPE = 0
CLASSIFICATION_TYPE = U
NORAD_CAT_ID   = 11267
ELEMENT_SET_NO = 999
REV_AT_EPOCH   = 52113
BSTAR          = .59480116E-4
MEAN_MOTION_DOT = .626E-5
MEAN_MOTION_DDOT = 0

CCSDS_OMM_VERS = 2.0
CREATION_DATE  = 
ORIGINATOR     = 

OBJECT_NAME    = SL-8 R/B
OBJECT_ID      = 1979-089B
CENTER_NAME    = EARTH
REF_FRAME      = TEME
TIME_SYSTEM    = UTC
MEAN_ELEMENT_THEORY = SGP/SGP4

EPOCH          = 2026-01-17T13:23:04.749504
MEAN_MOTION    = 14.42309578
ECCENTRICITY   = .00155973
INCLINATION    = 74.0676
RA_OF_ASC_NODE = 185.6855
ARG_OF_PERICENTER = 6.8732
MEAN_ANOMALY   = 353.2635

EPHEMERIS_TYPE = 0
CLASSIFICATION_TYPE = U
NORAD_CAT_ID   = 11574
ELEMENT_SET_NO = 999
REV_AT_EPOCH   = 42873
BSTAR          = .11027829E-3
MEAN_MOTION_DOT = .338E-5
MEAN_MOTION_DDOT = 0

CCSDS_OMM_VERS = 2.0
CREATION_DATE  = 
ORIGINATOR     = 

OBJECT_NAME    = SL-14 R/B
OBJECT_ID      = 1980-005B
CENTER_NAME    = EARTH
REF_FRAME      = TEME
TIME_SYSTEM    = UTC
MEAN_ELEMENT_THEORY = SGP/SGP4

EPOCH          = 2026-01-17T10:49:54.070464
MEAN_MOTION    = 14.90843853
ECCENTRICITY   = .00151819
INCLINATION    = 82.5151
RA_OF_ASC_NODE = 355.8251
ARG_OF_PERICENTER = 340.3602
MEAN_ANOMALY   = 19.7030

EPHEMERIS_TYPE = 0
CLASSIFICATION_TYPE = U
NORAD_CAT_ID   = 11672
ELEMENT_SET_NO = 999
REV_AT_EPOCH   = 46885
BSTAR          = .60968782E-4
MEAN_MOTION_DOT = .626E-5
MEAN_MOTION_DDOT = 0

CCSDS_OMM_VERS = 2.0
CREATION_DATE  = 
ORIGINATOR     = 

OBJECT_NAME    = SL-8 R/B
OBJECT_ID      = 1981-003B
CENTER_NAME    = EARTH
REF_FRAME      = TEME
TIME_SYSTEM    = UTC
MEAN_ELEMENT_THEORY = SGP/SGP4

EPOCH          = 2026-01-17T15:23:48.604992
MEAN_MOTION    = 15.08607827
ECCENTRICITY   = .02707678
INCLINATION    = 82.9392
RA_OF_ASC_NODE = 337.1542
ARG_OF_PERICENTER = 356.9720
MEAN_ANOMALY   = 2.9853

EPHEMERIS_TYPE = 0
CLASSIFICATION_TYPE = U
NORAD_CAT_ID   = 12139
ELEMENT_SET_NO = 999
REV_AT_EPOCH   = 30697
BSTAR          = .6722945E-3
MEAN_MOTION_DOT = .25361E-3
MEAN_MOTION_DDOT = 0

CCSDS_OMM_VERS = 2.0
CREATION_DATE  = 
ORIGINATOR     = 

OBJECT_NAME    = SL-3 R/B
OBJECT_ID      = 1981-046B
CENTER_NAME    = EARTH
REF_FRAME      = TEME
TIME_SYSTEM    = UTC
MEAN_ELEMENT_THEORY = SGP/SGP4

EPOCH          = 2026-01-17T15:00:21.902400
MEAN_MOTION    = 15.40462923
ECCENTRICITY   = .00188235
INCLINATION    = 81.2329
RA_OF_ASC_NODE = 350.9770
ARG_OF_PERICENTER = 191.4656
MEAN_ANOMALY   = 168.6160

EPHEMERIS_TYPE = 0
CLASSIFICATION_TYPE = U
NORAD_CAT_ID   = 12465
ELEMENT_SET_NO = 999
REV_AT_EPOCH   = 43056
BSTAR          = .26007925E-3
MEAN_MOTION_DOT = .10632E-3
MEAN_MOTION_DDOT = 0

CCSDS_OMM_VERS = 2.0
CREATION_DATE  = 
ORIGINATOR     = 

OBJECT_NAME    = SL-3 R/B
OBJECT_ID      = 1981-103B
CENTER_NAME    = EARTH
REF_FRAME      = TEME
TIME_SYSTEM    = UTC
MEAN_ELEMENT_THEORY = SGP/SGP4

EPOCH          = 2026-01-17T14:12:34.440192
MEAN_MOTION    = 15.20696284
ECCENTRICITY   = .00144884
INCLINATION    = 81.1592
RA_OF_ASC_NODE = 273.3543
ARG_OF_PERICENTER = 95.6042
MEAN_ANOMALY   = 264.6842

EPHEMERIS_TYPE = 0
CLASSIFICATION_TYPE = U
NORAD_CAT_ID   = 12904
ELEMENT_SET_NO = 999
REV_AT_EPOCH   = 96546
BSTAR          = .21433377E-3
MEAN_MOTION_DOT = .4747E-4
MEAN_MOTION_DDOT = 0

CCSDS_OMM_VERS = 2.0
CREATION_DATE  = 
ORIGINATOR     = 

OBJECT_NAME    = SL-3 R/B
OBJECT_ID      = 1982-013B
CENTER_NAME    = EARTH
REF_FRAME      = TEME
TIME_SYSTEM    = UTC
MEAN_ELEMENT_THEORY = SGP/SGP4

EPOCH          = 2026-01-17T14:56:31.085664
MEAN_MOTION    = 15.21421191
ECCENTRICITY   = .00227167
INCLINATION    = 81.1722
RA_OF_ASC_NODE = 220.5970
ARG_OF_PERICENTER = 354.3463
MEAN_ANOMALY   = 5.7508

EPHEMERIS_TYPE = 0
CLASSIFICATION_TYPE = U
NORAD_CAT_ID   = 13068
ELEMENT_SET_NO = 999
REV_AT_EPOCH   = 39658
BSTAR          = .16229391E-3
MEAN_MOTION_DOT = .3693E-4
MEAN_MOTION_DDOT = 0

CCSDS_OMM_VERS = 2.0
CREATION_DATE  = 
ORIGINATOR     = 

OBJECT_NAME    = SL-3 R/B
OBJECT_ID      = 1982-039B
CENTER_NAME    = EARTH
REF_FRAME      = TEME
TIME_SYSTEM    = UTC
MEAN_ELEMENT_THEORY = SGP/SGP4

EPOCH          = 2026-01-17T13:31:51.367872
MEAN_MOTION    = 15.09756949
ECCENTRICITY   = .00299351
INCLINATION    = 81.1675
RA_OF_ASC_NODE = 274.8720
ARG_OF_PERICENTER = 131.7798
MEAN_ANOMALY   = 228.5993

EPHEMERIS_TYPE = 0
CLASSIFICATION_TYPE = U
NORAD_CAT_ID   = 13154
ELEMENT_SET_NO = 999
REV_AT_EPOCH   = 37392
BSTAR          = .13024827E-3
MEAN_MOTION_DOT = .2147E-4
MEAN_MOTION_DDOT = 0

