ATLAS CENTAUR R/B       
1 06155U 72065B   26017.34014297  .00000874  00000+0  12258-3 0  9992
2 06155  35.0007 246.6443 0034539 297.6504  62.0693 14.77513393833665
SL-8 R/B                
1 08459U 75112B   26017.51559017  .00000224  00000+0  82409-4 0  9995
2 08459  74.0612 113.0540 0016335 220.7273 139.2661 14.38171427624517
SL-3 R/B                
1 10114U 77057B   26017.60866348  .00011182  00000+0  24782-3 0  9998
2 10114  97.5698 187.3643 0008591 105.4426 254.7772 15.43902892660447
SEASAT 1                
1 10967U 78064A   26017.65373352  .00000220  00000+0  10003-3 0  9998
2 10967 108.0161  18.3919 0001188 279.3324  80.7687 14.46105093499136
SL-14 R/B               
1 11267U 79011B   26017.40483113  .00000626  00000+0  59480-4 0  9998
2 11267  82.5259 145.2203 0014996 225.1010 134.8994 14.91825629521134
SL-8 R/B                
1 11574U 79089B   26017.55769386  .00000338  00000+0  11028-3 0  9994
2 11574  74.0676 185.6855 0015597   6.8732 353.2635 14.42309578428735
SL-14 R/B               
1 11672U 80005B   26017.45132026  .00000626  00000+0  60969-4 0  9996
2 11672  82.5151 355.8251 0015181 340.3602  19.7030 14.90843853468850
SL-8 R/B                
1 12139U 81003B   26017.64153478  .00025361  00000+0  67229-3 0  9997
2 12139  82.9392 337.1542 0270767 356.9720   2.9853 15.08607827306973
SL-3 R/B                
1 12465U 81046B   26017.62525350  .00010632  00000+0  26008-3 0  9991
2 12465  81.2329 350.9770 0018823 191.4656 168.6160 15.40462923430562
SL-3 R/B                
1 12904U 81103B   26017.59206528  .00004747  00000+0  21433-3 0  9999
2 12904  81.1592 273.3543 0014488  95.6042 264.6842 15.20696284965467
SL-3 R/B                
1 13068U 82013B   26017.62258201  .00003693  00000+0  16229-3 0  9997
2 13068  81.1722 220.5970 0022716 354.3463   5.7508 15.21421191396585
SL-3 R/B                
1 13154U 82039B   26017.56378898  .00002147  00000+0  13025-3 0  9993
2 13154  81.1675 274.8720 0029935 131.7798 228.5993 15.09756949373925
